{
  "type": "FeatureCollection",
  "features": [
    {
      "type": "Feature",
      "properties": {
        "norad_id": 54259,
        "name": "EUTELSAT 10B",
        "group": "eutelsat",
        "lat": 0.033196379850570036,
        "lon": -172.94915505503917,
        "alt_km": 35782.664726540104,
        "timestamp": "2025-12-03T06:58:42.912824+00:00",
        "meta_object_name": "EUTELSAT 10B",
        "meta_object_id": "2022-157A",
        "meta_epoch": "2025-12-02T18:40:38.741952",
        "meta_mean_motion": 1.00268254,
        "meta_eccentricity": 0.000106,
        "meta_inclination": 0.0596,
        "meta_ra_of_asc_node": 104.1323,
        "meta_arg_of_pericenter": 71.1589,
        "meta_mean_anomaly": 186.7669,
        "meta_ephemeris_type": 0,
        "meta_classification_type": "U",
        "meta_norad_cat_id": 54259,
        "meta_element_set_no": 999,
        "meta_rev_at_epoch": 1105,
        "meta_bstar": 0,
        "meta_mean_motion_dot": 8.8e-07,
        "meta_mean_motion_ddot": 0,
        "tle_line1": "1 54259U 22157A   25336.77822618  .00000088  00000+0  00000+0 0  9996",
        "tle_line2": "2 54259   0.0596 104.1323 0001060  71.1589 186.7669  1.00268254 11057"
      },
      "geometry": {
        "type": "Point",
        "coordinates": [
          -172.94915505503917,
          0.033196379850570036
        ]
      }
    },
    {
      "type": "Feature",
      "properties": {
        "norad_id": 59346,
        "name": "EUTELSAT 36D",
        "group": "eutelsat",
        "lat": -0.04093909563285478,
        "lon": -147.12210075121743,
        "alt_km": 35786.27510999258,
        "timestamp": "2025-12-03T06:58:42.912835+00:00",
        "meta_object_name": "EUTELSAT 36D",
        "meta_object_id": "2024-059A",
        "meta_epoch": "2025-12-02T18:24:38.544192",
        "meta_mean_motion": 1.00270388,
        "meta_eccentricity": 6.12e-05,
        "meta_inclination": 0.0221,
        "meta_ra_of_asc_node": 336.5365,
        "meta_arg_of_pericenter": 323.5986,
        "meta_mean_anomaly": 83.7439,
        "meta_ephemeris_type": 0,
        "meta_classification_type": "U",
        "meta_norad_cat_id": 59346,
        "meta_element_set_no": 999,
        "meta_rev_at_epoch": 617,
        "meta_bstar": 0,
        "meta_mean_motion_dot": 0,
        "meta_mean_motion_ddot": 0,
        "tle_line1": "1 59346U 24059A   25336.76711278  .00000000  00000+0  00000+0 0  9993",
        "tle_line2": "2 59346   0.0221 336.5365 0000612 323.5986  83.7439  1.00270388  6177"
      },
      "geometry": {
        "type": "Point",
        "coordinates": [
          -147.12210075121743,
          -0.04093909563285478
        ]
      }
    }
  ]
}